[{"OBJECT_NAME":"STARLINK-36200","OBJECT_ID":"2025-298AC","EPOCH":"2026-03-09T22:00:01.999584","MEAN_MOTION":14.98359117,"ECCENTRICITY":0.00021382,"INCLINATION":70.0008,"RA_OF_ASC_NODE":14.0348,"ARG_OF_PERICENTER":265.8327,"MEAN_ANOMALY":236.4744,"EPHEMERIS_TYPE":0,"CLASSIFICATION_TYPE":"U","NORAD_CAT_ID":67101,"ELEMENT_SET_NO":999,"REV_AT_EPOCH":590,"BSTAR":-0.0019755868,"MEAN_MOTION_DOT":-0.00023603,"MEAN_MOTION_DDOT":0},{"OBJECT_NAME":"COSMOS 2251 DEB","OBJECT_ID":"1993-036LH","EPOCH":"2026-03-09T22:01:19.578144","MEAN_MOTION":14.80785224,"ECCENTRICITY":0.00862249,"INCLINATION":74.0187,"RA_OF_ASC_NODE":230.5997,"ARG_OF_PERICENTER":329.6727,"MEAN_ANOMALY":156.0627,"EPHEMERIS_TYPE":0,"CLASSIFICATION_TYPE":"U","NORAD_CAT_ID":34136,"ELEMENT_SET_NO":999,"REV_AT_EPOCH":91300,"BSTAR":0.00043945141,"MEAN_MOTION_DOT":3.573e-5,"MEAN_MOTION_DDOT":0}]
